{
  "norad_id": 65159,
  "name": "METOP-SGA1",
  "history": [
    {
      "epoch": "2026-03-26T10:45:13.652352",
      "apogee_km": 820.9492404627681,
      "perigee_km": 819.6823127740827,
      "latitude_deg": 82.06289166214273,
      "longitude_deg": -173.08483071997762,
      "semi_major_axis_km": 7198.452776618425,
      "eccentricity": 8.8e-05,
      "inclination_deg": 98.6725,
      "raan_deg": 146.6224,
      "arg_perigee_deg": 99.0035,
      "mean_anomaly_deg": 261.1242,
      "mean_motion_rev_day": 14.21490698
    }
  ]
}