{"fetched_at":"2026-03-29T02:12:04Z","count":15717,"tles":[{"name":"METOP-SGA1","line1":"1 65159U 25172A   26085.44807468  .00000022  00000+0  29939-4 0  9994","line2":"2 65159  98.6725 146.6224 0000880  99.0035 261.1242 14.21490698 32032","category":"Weather"}]}